[
    {
        "Altitude(m)": 617710.6505887696,
        "Argument of Periapsis(deg)": 0.0,
        "Eccentricity": 0.0,
        "Inclination(deg)": 60.0,
        "Latitude(deg)": -41.102689725918076,
        "Longitude(deg)": 29.966744431260285,
        "Mean Anomaly(deg)": -49.09089999999992,
        "RAAN(deg)": 160.0,
        "Satellite Name": "Test1 723",
        "Satellite Number": 723,
        "Semi-Major Axis(m)": 6980739.136638005,
        "Time(s)": 0
    },
    {
        "Altitude(m)": 617517.948633479,
        "Argument of Periapsis(deg)": 0.00010418945913296404,
        "Eccentricity": 0.0,
        "Inclination(deg)": 60.0,
        "Latitude(deg)": -40.63689553706452,
        "Longitude(deg)": 30.463536388239167,
        "Mean Anomaly(deg)": -48.470793854538066,
        "RAAN(deg)": 159.99957995086024,
        "Satellite Name": "Test1 723",
        "Satellite Number": 723,
        "Semi-Major Axis(m)": 6980739.136638005,
        "Time(s)": 10
    }
]